[{"OBJECT_NAME":"STARLINK-31272","OBJECT_ID":"2024-044L","EPOCH":"2026-03-09T11:04:40.105056","MEAN_MOTION":15.27575096,"ECCENTRICITY":0.00010403,"INCLINATION":42.9999,"RA_OF_ASC_NODE":108.0604,"ARG_OF_PERICENTER":254.0222,"MEAN_ANOMALY":106.0515,"EPHEMERIS_TYPE":0,"CLASSIFICATION_TYPE":"U","NORAD_CAT_ID":59162,"ELEMENT_SET_NO":999,"REV_AT_EPOCH":11353,"BSTAR":2.058611e-6,"MEAN_MOTION_DOT":-2.05e-6,"MEAN_MOTION_DDOT":0},{"OBJECT_NAME":"CZ-6A DEB","OBJECT_ID":"2024-140ADS","EPOCH":"2026-03-09T14:05:09.302208","MEAN_MOTION":15.17885306,"ECCENTRICITY":0.0073653,"INCLINATION":89.0442,"RA_OF_ASC_NODE":281.8925,"ARG_OF_PERICENTER":121.24,"MEAN_ANOMALY":239.6089,"EPHEMERIS_TYPE":0,"CLASSIFICATION_TYPE":"U","NORAD_CAT_ID":64628,"ELEMENT_SET_NO":999,"REV_AT_EPOCH":8034,"BSTAR":0.0029018,"MEAN_MOTION_DOT":0.00063537,"MEAN_MOTION_DDOT":0}]
